[{"OBJECT_NAME":"ONEWEB-0551","OBJECT_ID":"2023-043H","EPOCH":"2026-03-09T19:47:05.224992","MEAN_MOTION":13.15548468,"ECCENTRICITY":0.00018983,"INCLINATION":87.8937,"RA_OF_ASC_NODE":279.0686,"ARG_OF_PERICENTER":92.7511,"MEAN_ANOMALY":267.3837,"EPHEMERIS_TYPE":0,"CLASSIFICATION_TYPE":"U","NORAD_CAT_ID":56053,"ELEMENT_SET_NO":999,"REV_AT_EPOCH":14333,"BSTAR":-1.6847715e-5,"MEAN_MOTION_DOT":6.0e-8,"MEAN_MOTION_DDOT":0},{"OBJECT_NAME":"SL-14 R\/B","OBJECT_ID":"1991-056B","EPOCH":"2026-03-09T20:26:09.161952","MEAN_MOTION":13.20280426,"ECCENTRICITY":0.00238539,"INCLINATION":82.5498,"RA_OF_ASC_NODE":198.5078,"ARG_OF_PERICENTER":321.4136,"MEAN_ANOMALY":154.284,"EPHEMERIS_TYPE":0,"CLASSIFICATION_TYPE":"U","NORAD_CAT_ID":21656,"ELEMENT_SET_NO":999,"REV_AT_EPOCH":66230,"BSTAR":7.8081907e-5,"MEAN_MOTION_DOT":4.4e-7,"MEAN_MOTION_DDOT":0}]
